{
  "type": "FeatureCollection",
  "features": [
    {
      "type": "Feature",
      "properties": {
        "norad_id": 54259,
        "name": "EUTELSAT 10B",
        "group": "eutelsat",
        "lat": -0.05251959204859873,
        "lon": -39.46895518674728,
        "alt_km": 35800.74568599851,
        "timestamp": "2025-12-19T14:48:35.916068+00:00",
        "meta_object_name": "EUTELSAT 10B",
        "meta_object_id": "2022-157A",
        "meta_epoch": "2025-12-19T03:02:18.038688",
        "meta_mean_motion": 1.00249724,
        "meta_eccentricity": 0.00023699,
        "meta_inclination": 0.0621,
        "meta_ra_of_asc_node": 98.3483,
        "meta_arg_of_pericenter": 10.4873,
        "meta_mean_anomaly": 34.7012,
        "meta_ephemeris_type": 0,
        "meta_classification_type": "U",
        "meta_norad_cat_id": 54259,
        "meta_element_set_no": 999,
        "meta_rev_at_epoch": 1122,
        "meta_bstar": 0,
        "meta_mean_motion_dot": 9e-07,
        "meta_mean_motion_ddot": 0,
        "tle_line1": "1 54259U 22157A   25353.12659767  .00000090  00000+0  00000+0 0  9990",
        "tle_line2": "2 54259   0.0621  98.3483 0002369  10.4873  34.7012  1.00249724 11226"
      },
      "geometry": {
        "type": "Point",
        "coordinates": [
          -39.46895518674728,
          -0.05251959204859873
        ]
      }
    },
    {
      "type": "Feature",
      "properties": {
        "norad_id": 59346,
        "name": "EUTELSAT 36D",
        "group": "eutelsat",
        "lat": -0.02033904908148058,
        "lon": -13.563704868635645,
        "alt_km": 35784.49155278174,
        "timestamp": "2025-12-19T14:48:35.916080+00:00",
        "meta_object_name": "EUTELSAT 36D",
        "meta_object_id": "2024-059A",
        "meta_epoch": "2025-12-19T06:35:12.644160",
        "meta_mean_motion": 1.0027145,
        "meta_eccentricity": 4.559e-05,
        "meta_inclination": 0.0258,
        "meta_ra_of_asc_node": 20.2811,
        "meta_arg_of_pericenter": 356.6231,
        "meta_mean_anomaly": 205.861,
        "meta_ephemeris_type": 0,
        "meta_classification_type": "U",
        "meta_norad_cat_id": 59346,
        "meta_element_set_no": 999,
        "meta_rev_at_epoch": 634,
        "meta_bstar": 0,
        "meta_mean_motion_dot": 0,
        "meta_mean_motion_ddot": 0,
        "tle_line1": "1 59346U 24059A   25353.27445190  .00000000  00000+0  00000+0 0  9995",
        "tle_line2": "2 59346   0.0258  20.2811 0000455 356.6231 205.8610  1.00271450  6343"
      },
      "geometry": {
        "type": "Point",
        "coordinates": [
          -13.563704868635645,
          -0.02033904908148058
        ]
      }
    }
  ]
}